0 SCOUT G-1 DEB
1 28673U 88074J   13286.48630992  .00001717  00000-0  19826-2 0  1136
2 28673 089.9213 009.7915 0074536 176.1050 183.6556 13.67664873440964
0 SCOUT G-1 DEB
1 28673U 88074J   13289.48603576  .00002247  00000-0  25952-2 0  1144
2 28673 089.9265 009.7699 0075652 166.8888 193.5000 13.67682852441372
0 SCOUT G-1 DEB
1 28673U 88074J   13292.48561877  .00002316  00000-0  26748-2 0  1157
2 28673 089.9265 009.7461 0075458 158.2198 202.2372 13.67697544441781
0 SCOUT G-1 DEB
1 28673U 88074J   13295.48517897  .00002364  00000-0  27305-2 0  1167
2 28673 089.9266 009.7209 0074900 149.7110 210.8596 13.67712459442194
